<?xml version="1.0" encoding="UTF-8"?>
<ndm xmlns:xsi="http://www.w3.org/2001/XMLSchema-instance" xsi:noNamespaceSchemaLocation="https://sanaregistry.org/r/ndmxml_unqualified/ndmxml-2.0.0-master-2.0.xsd">
<omm id="CCSDS_OMM_VERS" version="2.0">
<header><CREATION_DATE/><ORIGINATOR/></header><body><segment><metadata><OBJECT_NAME>ONEWEB-0520</OBJECT_NAME><OBJECT_ID>2022-138AB</OBJECT_ID><CENTER_NAME>EARTH</CENTER_NAME><REF_FRAME>TEME</REF_FRAME><TIME_SYSTEM>UTC</TIME_SYSTEM><MEAN_ELEMENT_THEORY>SGP4</MEAN_ELEMENT_THEORY></metadata><data><meanElements><EPOCH>2024-10-20T09:57:45.097920</EPOCH><MEAN_MOTION>13.19722733</MEAN_MOTION><ECCENTRICITY>.0002052</ECCENTRICITY><INCLINATION>87.9148</INCLINATION><RA_OF_ASC_NODE>65.2268</RA_OF_ASC_NODE><ARG_OF_PERICENTER>97.1782</ARG_OF_PERICENTER><MEAN_ANOMALY>262.9584</MEAN_ANOMALY></meanElements><tleParameters><EPHEMERIS_TYPE>0</EPHEMERIS_TYPE><CLASSIFICATION_TYPE>U</CLASSIFICATION_TYPE><NORAD_CAT_ID>54138</NORAD_CAT_ID><ELEMENT_SET_NO>999</ELEMENT_SET_NO><REV_AT_EPOCH>9705</REV_AT_EPOCH><BSTAR>-.33771E-4</BSTAR><MEAN_MOTION_DOT>-.1E-7</MEAN_MOTION_DOT><MEAN_MOTION_DDOT>0</MEAN_MOTION_DDOT></tleParameters></data></segment></body></omm>
<omm id="CCSDS_OMM_VERS" version="2.0">
<header><CREATION_DATE/><ORIGINATOR/></header><body><segment><metadata><OBJECT_NAME>ONEWEB-0522</OBJECT_NAME><OBJECT_ID>2022-138AD</OBJECT_ID><CENTER_NAME>EARTH</CENTER_NAME><REF_FRAME>TEME</REF_FRAME><TIME_SYSTEM>UTC</TIME_SYSTEM><MEAN_ELEMENT_THEORY>SGP4</MEAN_ELEMENT_THEORY></metadata><data><meanElements><EPOCH>2024-10-20T10:15:56.427552</EPOCH><MEAN_MOTION>13.19723229</MEAN_MOTION><ECCENTRICITY>.0001777</ECCENTRICITY><INCLINATION>87.9145</INCLINATION><RA_OF_ASC_NODE>65.2168</RA_OF_ASC_NODE><ARG_OF_PERICENTER>93.9663</ARG_OF_PERICENTER><MEAN_ANOMALY>266.1673</MEAN_ANOMALY></meanElements><tleParameters><EPHEMERIS_TYPE>0</EPHEMERIS_TYPE><CLASSIFICATION_TYPE>U</CLASSIFICATION_TYPE><NORAD_CAT_ID>54140</NORAD_CAT_ID><ELEMENT_SET_NO>999</ELEMENT_SET_NO><REV_AT_EPOCH>9704</REV_AT_EPOCH><BSTAR>.41358E-3</BSTAR><MEAN_MOTION_DOT>.179E-5</MEAN_MOTION_DOT><MEAN_MOTION_DDOT>0</MEAN_MOTION_DDOT></tleParameters></data></segment></body></omm>
<omm id="CCSDS_OMM_VERS" version="2.0">
<header><CREATION_DATE/><ORIGINATOR/></header><body><segment><metadata><OBJECT_NAME>ONEWEB-0524</OBJECT_NAME><OBJECT_ID>2022-138AF</OBJECT_ID><CENTER_NAME>EARTH</CENTER_NAME><REF_FRAME>TEME</REF_FRAME><TIME_SYSTEM>UTC</TIME_SYSTEM><MEAN_ELEMENT_THEORY>SGP4</MEAN_ELEMENT_THEORY></metadata><data><meanElements><EPOCH>2024-10-20T07:53:22.865568</EPOCH><MEAN_MOTION>13.20772719</MEAN_MOTION><ECCENTRICITY>.000196</ECCENTRICITY><INCLINATION>87.9292</INCLINATION><RA_OF_ASC_NODE>34.7607</RA_OF_ASC_NODE><ARG_OF_PERICENTER>67.4107</ARG_OF_PERICENTER><MEAN_ANOMALY>292.7234</MEAN_ANOMALY></meanElements><tleParameters><EPHEMERIS_TYPE>0</EPHEMERIS_TYPE><CLASSIFICATION_TYPE>U</CLASSIFICATION_TYPE><NORAD_CAT_ID>54142</NORAD_CAT_ID><ELEMENT_SET_NO>999</ELEMENT_SET_NO><REV_AT_EPOCH>9946</REV_AT_EPOCH><BSTAR>.3221E-3</BSTAR><MEAN_MOTION_DOT>.144E-5</MEAN_MOTION_DOT><MEAN_MOTION_DDOT>0</MEAN_MOTION_DDOT></tleParameters></data></segment></body></omm>
<omm id="CCSDS_OMM_VERS" version="2.0">
<header><CREATION_DATE/><ORIGINATOR/></header><body><segment><metadata><OBJECT_NAME>ONEWEB-0525</OBJECT_NAME><OBJECT_ID>2022-138AG</OBJECT_ID><CENTER_NAME>EARTH</CENTER_NAME><REF_FRAME>TEME</REF_FRAME><TIME_SYSTEM>UTC</TIME_SYSTEM><MEAN_ELEMENT_THEORY>SGP4</MEAN_ELEMENT_THEORY></metadata><data><meanElements><EPOCH>2024-10-20T10:43:13.656576</EPOCH><MEAN_MOTION>13.19728385</MEAN_MOTION><ECCENTRICITY>.0001956</ECCENTRICITY><INCLINATION>87.9148</INCLINATION><RA_OF_ASC_NODE>65.2248</RA_OF_ASC_NODE><ARG_OF_PERICENTER>100.7900</ARG_OF_PERICENTER><MEAN_ANOMALY>259.3453</MEAN_ANOMALY></meanElements><tleParameters><EPHEMERIS_TYPE>0</EPHEMERIS_TYPE><CLASSIFICATION_TYPE>U</CLASSIFICATION_TYPE><NORAD_CAT_ID>54143</NORAD_CAT_ID><ELEMENT_SET_NO>999</ELEMENT_SET_NO><REV_AT_EPOCH>9706</REV_AT_EPOCH><BSTAR>-.45115E-4</BSTAR><MEAN_MOTION_DOT>-.5E-7</MEAN_MOTION_DOT><MEAN_MOTION_DDOT>0</MEAN_MOTION_DDOT></tleParameters></data></segment></body></omm>
<omm id="CCSDS_OMM_VERS" version="2.0">
<header><CREATION_DATE/><ORIGINATOR/></header><body><segment><metadata><OBJECT_NAME>ONEWEB-0526</OBJECT_NAME><OBJECT_ID>2022-138AH</OBJECT_ID><CENTER_NAME>EARTH</CENTER_NAME><REF_FRAME>TEME</REF_FRAME><TIME_SYSTEM>UTC</TIME_SYSTEM><MEAN_ELEMENT_THEORY>SGP4</MEAN_ELEMENT_THEORY></metadata><data><meanElements><EPOCH>2024-10-20T09:41:48.883200</EPOCH><MEAN_MOTION>13.19727925</MEAN_MOTION><ECCENTRICITY>.0001762</ECCENTRICITY><INCLINATION>87.9150</INCLINATION><RA_OF_ASC_NODE>65.2270</RA_OF_ASC_NODE><ARG_OF_PERICENTER>94.7700</ARG_OF_PERICENTER><MEAN_ANOMALY>265.3634</MEAN_ANOMALY></meanElements><tleParameters><EPHEMERIS_TYPE>0</EPHEMERIS_TYPE><CLASSIFICATION_TYPE>U</CLASSIFICATION_TYPE><NORAD_CAT_ID>54144</NORAD_CAT_ID><ELEMENT_SET_NO>999</ELEMENT_SET_NO><REV_AT_EPOCH>9703</REV_AT_EPOCH><BSTAR>.30405E-3</BSTAR><MEAN_MOTION_DOT>.135E-5</MEAN_MOTION_DOT><MEAN_MOTION_DDOT>0</MEAN_MOTION_DDOT></tleParameters></data></segment></body></omm>
<omm id="CCSDS_OMM_VERS" version="2.0">
<header><CREATION_DATE/><ORIGINATOR/></header><body><segment><metadata><OBJECT_NAME>ONEWEB-0529</OBJECT_NAME><OBJECT_ID>2022-138AJ</OBJECT_ID><CENTER_NAME>EARTH</CENTER_NAME><REF_FRAME>TEME</REF_FRAME><TIME_SYSTEM>UTC</TIME_SYSTEM><MEAN_ELEMENT_THEORY>SGP4</MEAN_ELEMENT_THEORY></metadata><data><meanElements><EPOCH>2024-10-20T09:46:22.298592</EPOCH><MEAN_MOTION>13.19728083</MEAN_MOTION><ECCENTRICITY>.0002043</ECCENTRICITY><INCLINATION>87.9155</INCLINATION><RA_OF_ASC_NODE>65.2502</RA_OF_ASC_NODE><ARG_OF_PERICENTER>97.9214</ARG_OF_PERICENTER><MEAN_ANOMALY>262.2151</MEAN_ANOMALY></meanElements><tleParameters><EPHEMERIS_TYPE>0</EPHEMERIS_TYPE><CLASSIFICATION_TYPE>U</CLASSIFICATION_TYPE><NORAD_CAT_ID>54145</NORAD_CAT_ID><ELEMENT_SET_NO>999</ELEMENT_SET_NO><REV_AT_EPOCH>9705</REV_AT_EPOCH><BSTAR>.32143E-3</BSTAR><MEAN_MOTION_DOT>.142E-5</MEAN_MOTION_DOT><MEAN_MOTION_DDOT>0</MEAN_MOTION_DDOT></tleParameters></data></segment></body></omm>

</ndm>
