ONEWEB-0520             
1 54138U 22138AB  24294.41510530 -.00000001  00000+0 -33771-4 0  9994
2 54138  87.9148  65.2268 0002052  97.1782 262.9584 13.19722733 97057
ONEWEB-0522             
1 54140U 22138AD  24294.42773643  .00000179  00000+0  41358-3 0  9997
2 54140  87.9145  65.2168 0001777  93.9663 266.1673 13.19723229 97046
ONEWEB-0524             
1 54142U 22138AF  24294.32873687  .00000144  00000+0  32210-3 0  9996
2 54142  87.9292  34.7607 0001960  67.4107 292.7234 13.20772719 99469
ONEWEB-0525             
1 54143U 22138AG  24294.44668584 -.00000005  00000+0 -45115-4 0  9995
2 54143  87.9148  65.2248 0001956 100.7900 259.3453 13.19728385 97061
ONEWEB-0526             
1 54144U 22138AH  24294.40403800  .00000135  00000+0  30405-3 0  9997
2 54144  87.9150  65.2270 0001762  94.7700 265.3634 13.19727925 97039
ONEWEB-0529             
1 54145U 22138AJ  24294.40720253  .00000142  00000+0  32143-3 0  9991
2 54145  87.9155  65.2502 0002043  97.9214 262.2151 13.19728083 97059
